JILIN-1 GAOFEN 3A       
1 44312U 19032C   26068.74542089  .00016264  00000+0  55381-3 0  9993
2 44312  44.9746 183.2861 0002618 111.2900 248.8263 15.30271310372592
STARLINK-32651          
1 62314U 24239P   26068.61526155  .00028253  00000+0  96322-3 0  9993
2 62314  53.1593 194.1825 0001348 105.2248 254.8902 15.30172456 69371
